ISS (ZARYA)             
1 25544U 98067A   26046.56961129  .00012237  00000+0  23255-3 0  9991
2 25544  51.6318 181.6982 0010992 101.7612 258.4610 15.48625638552905
CSS (TIANHE)            
1 48274U 21035A   26046.50323910  .00030755  00000+0  37696-3 0  9990
2 48274  41.4685 343.0582 0004073 103.9215 256.2076 15.59671099274143
ISS (NAUKA)             
1 49044U 21066A   26046.56961129  .00012237  00000+0  23255-3 0  9997
2 49044  51.6318 181.6982 0010992 101.7612 258.4610 15.48625638230448
FREGAT DEB              
1 49271U 11037PF  26046.26388505  .00043522  00000+0  69419-1 0  9995
2 49271  51.6533   7.8958 0938699   7.8738 353.5756 12.38700451209918
CSS (WENTIAN)           
1 53239U 22085A   26046.50323910  .00030755  00000+0  37696-3 0  9993
2 53239  41.4685 343.0582 0004073 103.9215 256.2076 15.59671099173845
CSS (MENGTIAN)          
1 54216U 22143A   26046.50323910  .00030755  00000+0  37696-3 0  9994
2 54216  41.4685 343.0582 0004073 103.9215 256.2076 15.59671099158642
PROGRESS-MS 31          
1 64751U 25146A   26046.56961129  .00012237  00000+0  23255-3 0  9992
2 64751  51.6318 181.6982 0010992 101.7612 258.4610 15.48625638  6755
TIANZHOU-9              
1 64786U 25149A   26046.50323910  .00030755  00000+0  37696-3 0  9996
2 64786  41.4685 343.0582 0004073 103.9215 256.2076 15.59671099255306
DRAGON CRS-33           
1 65304U 25186A   26046.56961129  .00012237  00000+0  23255-3 0  9991
2 65304  51.6318 181.6982 0010992 101.7612 258.4610 15.48625638   114
PROGRESS-MS 32          
1 65586U 25204A   26046.56961129  .00012237  00000+0  23255-3 0  9994
2 65586  51.6318 181.6982 0010992 101.7612 258.4610 15.48625638   273
CYGNUS NG-23            
1 65616U 25208A   26046.56961129  .00012237  00000+0  23255-3 0  9992
2 65616  51.6318 181.6982 0010992 101.7612 258.4610 15.48625638   222
ISS OBJECT XK           
1 65731U 98067XK  26046.52439074  .00369445  00000+0  12332-2 0  9997
2 65731  51.6226 164.0736 0005645 330.2240  29.8443 15.88681869 23350
